<?xml version="1.0" encoding="UTF-8"?>
<kml xmlns="http://www.opengis.net/kml/2.2" xmlns:gx="http://www.google.com/kml/ext/2.2">
    <Document id="1">
        <Placemark id="3">
            <name>ID: 40610281.0</name>
            <Point id="2">
                <coordinates>8.3490344,46.5335891,0.0</coordinates>
            </Point>
        </Placemark>
        <Placemark id="5">
            <name>ID: 78069637.0</name>
            <Point id="4">
                <coordinates>8.344304,46.5285664,0.0</coordinates>
            </Point>
        </Placemark>
        <Placemark id="7">
            <name>ID: 59556931.0</name>
            <Point id="6">
                <coordinates>8.3392839,46.5238737,0.0</coordinates>
            </Point>
        </Placemark>
        <Placemark id="9">
            <name>ID: 911213402.0</name>
            <Point id="8">
                <coordinates>8.3370622,46.5227752,0.0</coordinates>
            </Point>
        </Placemark>
        <Placemark id="11">
            <name>ID: 911213403.0</name>
            <Point id="10">
                <coordinates>8.3355938,46.5214134,0.0</coordinates>
            </Point>
        </Placemark>
        <Placemark id="13">
            <name>ID: 1146456509.0</name>
            <Point id="12">
                <coordinates>8.335558,46.5213506,0.0</coordinates>
            </Point>
        </Placemark>
        <Placemark id="15">
            <name>ID: 59556932.0</name>
            <Point id="14">
                <coordinates>8.3319015,46.5174879,0.0</coordinates>
            </Point>
        </Placemark>
        <Placemark id="17">
            <name>ID: 393603972.0</name>
            <Point id="16">
                <coordinates>8.3275887,46.5133125,0.0</coordinates>
            </Point>
        </Placemark>
        <Placemark id="19">
            <name>ID: 675661522.0</name>
            <Point id="18">
                <coordinates>8.3269553,46.5130652,0.0</coordinates>
            </Point>
        </Placemark>
        <Placemark id="21">
            <name>ID: 446634073.0</name>
            <Point id="20">
                <coordinates>8.3263132,46.5128441,0.0</coordinates>
            </Point>
        </Placemark>
        <Placemark id="23">
            <name>ID: 1022510931.0</name>
            <Point id="22">
                <coordinates>8.3256995,46.5126593,0.0</coordinates>
            </Point>
        </Placemark>
        <Placemark id="25">
            <name>ID: 148616339.0</name>
            <Point id="24">
                <coordinates>8.3254936,46.5122158,0.0</coordinates>
            </Point>
        </Placemark>
        <Placemark id="27">
            <name>ID: 393965178.0</name>
            <Point id="26">
                <coordinates>8.3256639,46.5117732,0.0</coordinates>
            </Point>
        </Placemark>
        <Placemark id="29">
            <name>ID: 136916672.0</name>
            <Point id="28">
                <coordinates>8.3253382,46.5112681,0.0</coordinates>
            </Point>
        </Placemark>
        <Placemark id="31">
            <name>ID: 136916745.0</name>
            <Point id="30">
                <coordinates>8.3232768,46.5098996,0.0</coordinates>
            </Point>
        </Placemark>
        <Placemark id="33">
            <name>ID: 853523420.0</name>
            <Point id="32">
                <coordinates>8.3213702,46.5089893,0.0</coordinates>
            </Point>
        </Placemark>
        <Placemark id="35">
            <name>ID: 853523419.0</name>
            <Point id="34">
                <coordinates>8.3202454,46.5086915,0.0</coordinates>
            </Point>
        </Placemark>
        <Placemark id="37">
            <name>ID: 873176272.0</name>
            <Point id="36">
                <coordinates>8.3189917,46.5080827,0.0</coordinates>
            </Point>
        </Placemark>
        <Placemark id="39">
            <name>ID: 43156415.0</name>
            <Point id="38">
                <coordinates>8.3186703,46.5076994,0.0</coordinates>
            </Point>
        </Placemark>
        <Placemark id="41">
            <name>ID: 675661526.0</name>
            <Point id="40">
                <coordinates>8.318471,46.507345,0.0</coordinates>
            </Point>
        </Placemark>
        <Placemark id="43">
            <name>ID: 43156414.0</name>
            <Point id="42">
                <coordinates>8.3179374,46.5053353,0.0</coordinates>
            </Point>
        </Placemark>
        <Placemark id="45">
            <name>ID: 153067352.0</name>
            <Point id="44">
                <coordinates>8.3173682,46.5037302,0.0</coordinates>
            </Point>
        </Placemark>
        <Placemark id="47">
            <name>ID: 153067305.0</name>
            <Point id="46">
                <coordinates>8.3169652,46.5038989,0.0</coordinates>
            </Point>
        </Placemark>
        <Placemark id="49">
            <name>ID: 873176273.0</name>
            <Point id="48">
                <coordinates>8.3160663,46.5039402,0.0</coordinates>
            </Point>
        </Placemark>
        <Placemark id="51">
            <name>ID: 153067340.0</name>
            <Point id="50">
                <coordinates>8.3136724,46.5041842,0.0</coordinates>
            </Point>
        </Placemark>
        <Placemark id="53">
            <name>ID: 43156413.0</name>
            <Point id="52">
                <coordinates>8.3114935,46.5044079,0.0</coordinates>
            </Point>
        </Placemark>
        <Placemark id="55">
            <name>ID: 41383662.0</name>
            <Point id="54">
                <coordinates>8.3110194,46.5043624,0.0</coordinates>
            </Point>
        </Placemark>
        <Placemark id="57">
            <name>ID: 41383663.0</name>
            <Point id="56">
                <coordinates>8.3110223,46.5042713,0.0</coordinates>
            </Point>
        </Placemark>
        <Placemark id="59">
            <name>ID: 393962539.0</name>
            <Point id="58">
                <coordinates>8.3107977,46.5040943,0.0</coordinates>
            </Point>
        </Placemark>
        <Placemark id="61">
            <name>ID: 393962537.0</name>
            <Point id="60">
                <coordinates>8.3099771,46.5034542,0.0</coordinates>
            </Point>
        </Placemark>
        <Placemark id="63">
            <name>ID: 1146432792.0</name>
            <Point id="62">
                <coordinates>8.309263,46.5028392,0.0</coordinates>
            </Point>
        </Placemark>
        <Placemark id="65">
            <name>ID: 77382921.0</name>
            <Point id="64">
                <coordinates>8.3080472,46.5024329,0.0</coordinates>
            </Point>
        </Placemark>
        <Placemark id="67">
            <name>ID: 136916493.0</name>
            <Point id="66">
                <coordinates>8.3068701,46.5022216,0.0</coordinates>
            </Point>
        </Placemark>
        <Placemark id="69">
            <name>ID: 1215624298.0</name>
            <Point id="68">
                <coordinates>8.3063238,46.5019145,0.0</coordinates>
            </Point>
        </Placemark>
        <Placemark id="71">
            <name>ID: 60170354.0</name>
            <Point id="70">
                <coordinates>8.2923947,46.4950509,0.0</coordinates>
            </Point>
        </Placemark>
        <Placemark id="73">
            <name>ID: 1254072864.0</name>
            <Point id="72">
                <coordinates>8.2849011,46.4912219,0.0</coordinates>
            </Point>
        </Placemark>
        <Placemark id="75">
            <name>ID: 1254072863.0</name>
            <Point id="74">
                <coordinates>8.284708,46.4912011,0.0</coordinates>
            </Point>
        </Placemark>
        <Placemark id="77">
            <name>ID: 43156406.0</name>
            <Point id="76">
                <coordinates>8.2833407,46.4910398,0.0</coordinates>
            </Point>
        </Placemark>
        <Placemark id="79">
            <name>ID: 27075892.0</name>
            <Point id="78">
                <coordinates>8.2803077,46.4897245,0.0</coordinates>
            </Point>
        </Placemark>
        <Placemark id="81">
            <name>ID: 850559823.0</name>
            <Point id="80">
                <coordinates>8.2785113,46.4885039,0.0</coordinates>
            </Point>
        </Placemark>
        <Placemark id="83">
            <name>ID: 850559824.0</name>
            <Point id="82">
                <coordinates>8.2775847,46.4870044,0.0</coordinates>
            </Point>
        </Placemark>
        <Placemark id="85">
            <name>ID: 394118876.0</name>
            <Point id="84">
                <coordinates>8.276506,46.4850407,0.0</coordinates>
            </Point>
        </Placemark>
        <Placemark id="87">
            <name>ID: 394118877.0</name>
            <Point id="86">
                <coordinates>8.2757822,46.4843484,0.0</coordinates>
            </Point>
        </Placemark>
        <Placemark id="89">
            <name>ID: 41831443.0</name>
            <Point id="88">
                <coordinates>8.272414,46.4830099,0.0</coordinates>
            </Point>
        </Placemark>
        <Placemark id="91">
            <name>ID: 1245684232.0</name>
            <Point id="90">
                <coordinates>8.2677223,46.4802926,0.0</coordinates>
            </Point>
        </Placemark>
        <Placemark id="93">
            <name>ID: 43156394.0</name>
            <Point id="92">
                <coordinates>8.2623157,46.4761631,0.0</coordinates>
            </Point>
        </Placemark>
        <Placemark id="95">
            <name>ID: 43156393.0</name>
            <Point id="94">
                <coordinates>8.258176,46.4739538,0.0</coordinates>
            </Point>
        </Placemark>
        <Placemark id="97">
            <name>ID: 850559830.0</name>
            <Point id="96">
                <coordinates>8.2577254,46.4739702,0.0</coordinates>
            </Point>
        </Placemark>
        <Placemark id="99">
            <name>ID: 850559829.0</name>
            <Point id="98">
                <coordinates>8.2576501,46.473979,0.0</coordinates>
            </Point>
        </Placemark>
        <Placemark id="101">
            <name>ID: 43156392.0</name>
            <Point id="100">
                <coordinates>8.2567391,46.4740386,0.0</coordinates>
            </Point>
        </Placemark>
        <Placemark id="103">
            <name>ID: 43154002.0</name>
            <Point id="102">
                <coordinates>8.2531317,46.4723042,0.0</coordinates>
            </Point>
        </Placemark>
        <Placemark id="105">
            <name>ID: 448870275.0</name>
            <Point id="104">
                <coordinates>8.2487555,46.4704256,0.0</coordinates>
            </Point>
        </Placemark>
        <Placemark id="107">
            <name>ID: 394118878.0</name>
            <Point id="106">
                <coordinates>8.2467375,46.4699415,0.0</coordinates>
            </Point>
        </Placemark>
        <Placemark id="109">
            <name>ID: 27077072.0</name>
            <Point id="108">
                <coordinates>8.2457394,46.4696385,0.0</coordinates>
            </Point>
        </Placemark>
        <Placemark id="111">
            <name>ID: 35164926.0</name>
            <Point id="110">
                <coordinates>8.2454816,46.4686883,0.0</coordinates>
            </Point>
        </Placemark>
        <Placemark id="113">
            <name>ID: 1241445341.0</name>
            <Point id="112">
                <coordinates>8.2463762,46.4676575,0.0</coordinates>
            </Point>
        </Placemark>
        <Placemark id="115">
            <name>ID: 1241445340.0</name>
            <Point id="114">
                <coordinates>8.246912,46.4674192,0.0</coordinates>
            </Point>
        </Placemark>
        <Placemark id="117">
            <name>ID: 41831657.0</name>
            <Point id="116">
                <coordinates>8.2469111,46.4673509,0.0</coordinates>
            </Point>
        </Placemark>
        <Placemark id="119">
            <name>ID: 41831658.0</name>
            <Point id="118">
                <coordinates>8.2459733,46.4663522,0.0</coordinates>
            </Point>
        </Placemark>
        <Placemark id="121">
            <name>ID: 1315559568.0</name>
            <Point id="120">
                <coordinates>8.2450906,46.4653143,0.0</coordinates>
            </Point>
        </Placemark>
        <Placemark id="123">
            <name>ID: 1095900798.0</name>
            <Point id="122">
                <coordinates>8.2450512,46.4650694,0.0</coordinates>
            </Point>
        </Placemark>
        <Placemark id="125">
            <name>ID: 1010710011.0</name>
            <Point id="124">
                <coordinates>8.2443148,46.4641781,0.0</coordinates>
            </Point>
        </Placemark>
        <Placemark id="127">
            <name>ID: 1315559573.0</name>
            <Point id="126">
                <coordinates>8.2430738,46.463301,0.0</coordinates>
            </Point>
        </Placemark>
        <Placemark id="129">
            <name>ID: 43153997.0</name>
            <Point id="128">
                <coordinates>8.2398114,46.4621575,0.0</coordinates>
            </Point>
        </Placemark>
        <Placemark id="131">
            <name>ID: 1309159078.0</name>
            <Point id="130">
                <coordinates>8.2364143,46.4604988,0.0</coordinates>
            </Point>
        </Placemark>
        <Placemark id="133">
            <name>ID: 42045660.0</name>
            <Point id="132">
                <coordinates>8.2356966,46.4598369,0.0</coordinates>
            </Point>
        </Placemark>
        <Placemark id="135">
            <name>ID: 43153547.0</name>
            <Point id="134">
                <coordinates>8.2350221,46.4593915,0.0</coordinates>
            </Point>
        </Placemark>
        <Placemark id="137">
            <name>ID: 77382906.0</name>
            <Point id="136">
                <coordinates>8.2329654,46.4585785,0.0</coordinates>
            </Point>
        </Placemark>
        <Placemark id="139">
            <name>ID: 77382874.0</name>
            <Point id="138">
                <coordinates>8.231118,46.4577647,0.0</coordinates>
            </Point>
        </Placemark>
        <Placemark id="141">
            <name>ID: 77382930.0</name>
            <Point id="140">
                <coordinates>8.2288578,46.4560944,0.0</coordinates>
            </Point>
        </Placemark>
        <Placemark id="143">
            <name>ID: 153072411.0</name>
            <Point id="142">
                <coordinates>8.2272779,46.4545821,0.0</coordinates>
            </Point>
        </Placemark>
        <Placemark id="145">
            <name>ID: 43153544.0</name>
            <Point id="144">
                <coordinates>8.2265986,46.4542089,0.0</coordinates>
            </Point>
        </Placemark>
        <Placemark id="147">
            <name>ID: 43153542.0</name>
            <Point id="146">
                <coordinates>8.224848,46.4537642,0.0</coordinates>
            </Point>
        </Placemark>
        <Placemark id="149">
            <name>ID: 43153543.0</name>
            <Point id="148">
                <coordinates>8.2237849,46.4534244,0.0</coordinates>
            </Point>
        </Placemark>
        <Placemark id="151">
            <name>ID: 43153540.0</name>
            <Point id="150">
                <coordinates>8.2226349,46.4527912,0.0</coordinates>
            </Point>
        </Placemark>
        <Placemark id="153">
            <name>ID: 836753174.0</name>
            <Point id="152">
                <coordinates>8.2204462,46.452815,0.0</coordinates>
            </Point>
        </Placemark>
        <Placemark id="155">
            <name>ID: 1228875932.0</name>
            <Point id="154">
                <coordinates>8.2189341,46.4531016,0.0</coordinates>
            </Point>
        </Placemark>
        <Placemark id="157">
            <name>ID: 1241450651.0</name>
            <Point id="156">
                <coordinates>8.2184723,46.4525615,0.0</coordinates>
            </Point>
        </Placemark>
        <Placemark id="159">
            <name>ID: 43153174.0</name>
            <Point id="158">
                <coordinates>8.2165453,46.4509178,0.0</coordinates>
            </Point>
        </Placemark>
        <Placemark id="161">
            <name>ID: 43153185.0</name>
            <Point id="160">
                <coordinates>8.2140039,46.4491438,0.0</coordinates>
            </Point>
        </Placemark>
        <Placemark id="163">
            <name>ID: 403322992.0</name>
            <Point id="162">
                <coordinates>8.213185,46.4484464,0.0</coordinates>
            </Point>
        </Placemark>
        <Placemark id="165">
            <name>ID: 1022613715.0</name>
            <Point id="164">
                <coordinates>8.2120192,46.4474744,0.0</coordinates>
            </Point>
        </Placemark>
        <Placemark id="167">
            <name>ID: 1022613716.0</name>
            <Point id="166">
                <coordinates>8.2109799,46.4468776,0.0</coordinates>
            </Point>
        </Placemark>
        <Placemark id="169">
            <name>ID: 246097019.0</name>
            <Point id="168">
                <coordinates>8.2088306,46.4452888,0.0</coordinates>
            </Point>
        </Placemark>
        <Placemark id="171">
            <name>ID: 403322990.0</name>
            <Point id="170">
                <coordinates>8.2065914,46.4438406,0.0</coordinates>
            </Point>
        </Placemark>
        <Placemark id="173">
            <name>ID: 43153186.0</name>
            <Point id="172">
                <coordinates>8.2061956,46.4438687,0.0</coordinates>
            </Point>
        </Placemark>
        <Placemark id="175">
            <name>ID: 1228876294.0</name>
            <Point id="174">
                <coordinates>8.2059099,46.4439058,0.0</coordinates>
            </Point>
        </Placemark>
        <Placemark id="177">
            <name>ID: 43153176.0</name>
            <Point id="176">
                <coordinates>8.2058363,46.4439395,0.0</coordinates>
            </Point>
        </Placemark>
        <Placemark id="179">
            <name>ID: 835752582.0</name>
            <Point id="178">
                <coordinates>8.2054171,46.4438607,0.0</coordinates>
            </Point>
        </Placemark>
        <Placemark id="181">
            <name>ID: 403322995.0</name>
            <Point id="180">
                <coordinates>8.2047995,46.4432381,0.0</coordinates>
            </Point>
        </Placemark>
        <Placemark id="183">
            <name>ID: 43153181.0</name>
            <Point id="182">
                <coordinates>8.2045788,46.4418484,0.0</coordinates>
            </Point>
        </Placemark>
        <Placemark id="185">
            <name>ID: 604180274.0</name>
            <Point id="184">
                <coordinates>8.2025978,46.4400226,0.0</coordinates>
            </Point>
        </Placemark>
        <Placemark id="187">
            <name>ID: 394554581.0</name>
            <Point id="186">
                <coordinates>8.2009764,46.4390684,0.0</coordinates>
            </Point>
        </Placemark>
        <Placemark id="189">
            <name>ID: 394554579.0</name>
            <Point id="188">
                <coordinates>8.2004776,46.4386281,0.0</coordinates>
            </Point>
        </Placemark>
        <Placemark id="191">
            <name>ID: 1228877015.0</name>
            <Point id="190">
                <coordinates>8.2000802,46.4381434,0.0</coordinates>
            </Point>
        </Placemark>
        <Placemark id="193">
            <name>ID: 1228877014.0</name>
            <Point id="192">
                <coordinates>8.1997571,46.437805,0.0</coordinates>
            </Point>
        </Placemark>
        <Placemark id="195">
            <name>ID: 403337093.0</name>
            <Point id="194">
                <coordinates>8.1989706,46.4374134,0.0</coordinates>
            </Point>
        </Placemark>
        <Placemark id="197">
            <name>ID: 1261437959.0</name>
            <Point id="196">
                <coordinates>8.1981469,46.4374655,0.0</coordinates>
            </Point>
        </Placemark>
        <Placemark id="199">
            <name>ID: 403337089.0</name>
            <Point id="198">
                <coordinates>8.1975956,46.4378753,0.0</coordinates>
            </Point>
        </Placemark>
        <Placemark id="201">
            <name>ID: 77382878.0</name>
            <Point id="200">
                <coordinates>8.1962313,46.4372233,0.0</coordinates>
            </Point>
        </Placemark>
        <Placemark id="203">
            <name>ID: 77382903.0</name>
            <Point id="202">
                <coordinates>8.1929864,46.4360258,0.0</coordinates>
            </Point>
        </Placemark>
        <Placemark id="205">
            <name>ID: 403337102.0</name>
            <Point id="204">
                <coordinates>8.1921384,46.4345184,0.0</coordinates>
            </Point>
        </Placemark>
        <Placemark id="207">
            <name>ID: 403337098.0</name>
            <Point id="206">
                <coordinates>8.1925871,46.4342611,0.0</coordinates>
            </Point>
        </Placemark>
        <Placemark id="209">
            <name>ID: 37642500.0</name>
            <Point id="208">
                <coordinates>8.1925735,46.433983,0.0</coordinates>
            </Point>
        </Placemark>
        <Placemark id="211">
            <name>ID: 59642901.0</name>
            <Point id="210">
                <coordinates>8.192563,46.4338187,0.0</coordinates>
            </Point>
        </Placemark>
        <Placemark id="213">
            <name>ID: 43153171.0</name>
            <Point id="212">
                <coordinates>8.1914781,46.4348801,0.0</coordinates>
            </Point>
        </Placemark>
        <Placemark id="215">
            <name>ID: 37642506.0</name>
            <Point id="214">
                <coordinates>8.1904262,46.4327727,0.0</coordinates>
            </Point>
        </Placemark>
        <Placemark id="217">
            <name>ID: 186825437.0</name>
            <Point id="216">
                <coordinates>8.1883179,46.4317973,0.0</coordinates>
            </Point>
        </Placemark>
        <Placemark id="219">
            <name>ID: 186825422.0</name>
            <Point id="218">
                <coordinates>8.185892,46.4304307,0.0</coordinates>
            </Point>
        </Placemark>
        <Placemark id="221">
            <name>ID: 186825429.0</name>
            <Point id="220">
                <coordinates>8.1817831,46.4263383,0.0</coordinates>
            </Point>
        </Placemark>
        <Placemark id="223">
            <name>ID: 77382932.0</name>
            <Point id="222">
                <coordinates>8.1797532,46.4231312,0.0</coordinates>
            </Point>
        </Placemark>
        <Placemark id="225">
            <name>ID: 37642512.0</name>
            <Point id="224">
                <coordinates>8.1793508,46.4225368,0.0</coordinates>
            </Point>
        </Placemark>
        <Placemark id="227">
            <name>ID: 37642509.0</name>
            <Point id="226">
                <coordinates>8.1785148,46.422558,0.0</coordinates>
            </Point>
        </Placemark>
        <Placemark id="229">
            <name>ID: 853000447.0</name>
            <Point id="228">
                <coordinates>8.177656,46.4225941,0.0</coordinates>
            </Point>
        </Placemark>
        <Placemark id="231">
            <name>ID: 186825426.0</name>
            <Point id="230">
                <coordinates>8.1749624,46.4209212,0.0</coordinates>
            </Point>
        </Placemark>
        <Placemark id="233">
            <name>ID: 59418935.0</name>
            <Point id="232">
                <coordinates>8.17209,46.4190537,0.0</coordinates>
            </Point>
        </Placemark>
        <Placemark id="235">
            <name>ID: 59418932.0</name>
            <Point id="234">
                <coordinates>8.1717411,46.4188151,0.0</coordinates>
            </Point>
        </Placemark>
        <Placemark id="237">
            <name>ID: 59452183.0</name>
            <Point id="236">
                <coordinates>8.1716337,46.4188801,0.0</coordinates>
            </Point>
        </Placemark>
        <Placemark id="239">
            <name>ID: 59418933.0</name>
            <Point id="238">
                <coordinates>8.1711038,46.4188413,0.0</coordinates>
            </Point>
        </Placemark>
        <Placemark id="241">
            <name>ID: 186825438.0</name>
            <Point id="240">
                <coordinates>8.164357,46.4142771,0.0</coordinates>
            </Point>
        </Placemark>
        <Placemark id="243">
            <name>ID: 833122691.0</name>
            <Point id="242">
                <coordinates>8.1578541,46.4098487,0.0</coordinates>
            </Point>
        </Placemark>
        <Placemark id="245">
            <name>ID: 77382881.0</name>
            <Point id="244">
                <coordinates>8.1575482,46.4097505,0.0</coordinates>
            </Point>
        </Placemark>
        <Placemark id="247">
            <name>ID: 186825424.0</name>
            <Point id="246">
                <coordinates>8.1560197,46.4083155,0.0</coordinates>
            </Point>
        </Placemark>
        <Placemark id="249">
            <name>ID: 37642513.0</name>
            <Point id="248">
                <coordinates>8.1545334,46.4067744,0.0</coordinates>
            </Point>
        </Placemark>
        <Placemark id="251">
            <name>ID: 372637136.0</name>
            <Point id="250">
                <coordinates>8.1544251,46.406575,0.0</coordinates>
            </Point>
        </Placemark>
        <Placemark id="253">
            <name>ID: 176343794.0</name>
            <Point id="252">
                <coordinates>8.154279,46.4064341,0.0</coordinates>
            </Point>
        </Placemark>
        <Placemark id="255">
            <name>ID: 856951107.0</name>
            <Point id="254">
                <coordinates>8.1538396,46.4059666,0.0</coordinates>
            </Point>
        </Placemark>
        <Placemark id="257">
            <name>ID: 804236225.0</name>
            <Point id="256">
                <coordinates>8.1531587,46.4056875,0.0</coordinates>
            </Point>
        </Placemark>
        <Placemark id="259">
            <name>ID: 175977131.0</name>
            <Point id="258">
                <coordinates>8.151246,46.4044419,0.0</coordinates>
            </Point>
        </Placemark>
        <Placemark id="261">
            <name>ID: 655207353.0</name>
            <Point id="260">
                <coordinates>8.1486054,46.401832,0.0</coordinates>
            </Point>
        </Placemark>
        <Placemark id="263">
            <name>ID: 655207357.0</name>
            <Point id="262">
                <coordinates>8.1472228,46.400537,0.0</coordinates>
            </Point>
        </Placemark>
        <Placemark id="265">
            <name>ID: 1119387636.0</name>
            <Point id="264">
                <coordinates>8.1469429,46.4004029,0.0</coordinates>
            </Point>
        </Placemark>
        <Placemark id="267">
            <name>ID: 175977134.0</name>
            <Point id="266">
                <coordinates>8.1467122,46.400148,0.0</coordinates>
            </Point>
        </Placemark>
        <Placemark id="269">
            <name>ID: 175977133.0</name>
            <Point id="268">
                <coordinates>8.1464536,46.3996599,0.0</coordinates>
            </Point>
        </Placemark>
        <Placemark id="271">
            <name>ID: 175711446.0</name>
            <Point id="270">
                <coordinates>8.1466812,46.3991791,0.0</coordinates>
            </Point>
        </Placemark>
        <Placemark id="273">
            <name>ID: 267495897.0</name>
            <Point id="272">
                <coordinates>8.1468969,46.3989339,0.0</coordinates>
            </Point>
        </Placemark>
        <Placemark id="275">
            <name>ID: 833484410.0</name>
            <Point id="274">
                <coordinates>8.1465593,46.3987821,0.0</coordinates>
            </Point>
        </Placemark>
        <Placemark id="277">
            <name>ID: 526437216.0</name>
            <Point id="276">
                <coordinates>8.1461017,46.3986409,0.0</coordinates>
            </Point>
        </Placemark>
    </Document>
</kml>
